OBJECT_NAME,OBJECT_ID,EPOCH,MEAN_MOTION,ECCENTRICITY,INCLINATION,RA_OF_ASC_NODE,ARG_OF_PERICENTER,MEAN_ANOMALY,EPHEMERIS_TYPE,CLASSIFICATION_TYPE,NORAD_CAT_ID,ELEMENT_SET_NO,REV_AT_EPOCH,BSTAR,MEAN_MOTION_DOT,MEAN_MOTION_DDOT
STARLINK-31593,2024-060C,2026-06-19T08:11:48.373440,15.27585743,.00010569,43.0010,45.3978,262.2752,97.7979,0,U,59350,999,12561,-.30303886E-4,-.1096E-4,0
STARLINK-31555,2024-060D,2026-06-19T16:56:15.186912,15.27568796,.00013488,43.0065,43.8279,265.5736,94.4961,0,U,59351,999,12571,.24785493E-4,.42E-5,0
STARLINK-31561,2024-060E,2026-06-19T08:08:06.137088,15.27511480,.00002459,42.9971,45.3805,261.1518,98.9306,0,U,59352,999,12561,.46630378E-3,.12565E-3,0
STARLINK-31413,2024-060F,2026-06-19T08:28:27.718176,15.27572248,.00008199,43.0060,45.4861,277.5252,82.5507,0,U,59353,999,12561,.18267378E-4,.241E-5,0
STARLINK-31422,2024-060G,2026-06-19T01:46:08.375520,15.27578186,.00011203,43.0020,47.6848,273.3729,86.6995,0,U,59354,999,12556,.19441017E-4,.273E-5,0
STARLINK-31416,2024-060H,2026-06-19T16:50:41.737344,15.27596006,.00013657,43.0061,43.8015,261.9050,98.1647,0,U,59355,999,12566,-.97351875E-4,-.2941E-4,0
STARLINK-31552,2024-060J,2026-06-19T22:04:37.371936,15.27579713,.00013214,43.0037,42.8706,268.4502,91.6199,0,U,59356,999,12569,.22808255E-4,.366E-5,0
STARLINK-31557,2024-060K,2026-06-19T21:55:50.382912,15.27589630,.00012641,43.0008,38.4539,270.6981,89.3726,0,U,59357,999,12574,.15685695E-4,.17E-5,0
STARLINK-31559,2024-060L,2026-06-19T00:48:46.924416,15.27572647,.00011099,43.0044,47.3875,273.9228,86.1497,0,U,59358,999,12556,.314102E-6,-.253E-5,0
STARLINK-31501,2024-060M,2026-06-19T21:53:30.719904,15.27584486,.00014345,43.0034,42.8037,268.5313,91.5375,0,U,59359,999,12569,.53455431E-4,.1209E-4,0
STARLINK-31549,2024-060N,2026-06-19T08:22:52.965696,15.27599201,.00011703,43.0033,45.4585,282.1447,77.9273,0,U,59360,999,12561,.96708199E-4,.2401E-4,0
STARLINK-31560,2024-060P,2026-06-19T09:11:01.134528,15.27577040,.00012755,43.0054,45.7024,270.6751,89.3954,0,U,59361,999,12561,.22584383E-4,.359E-5,0
STARLINK-31571,2024-060Q,2026-06-19T21:47:57.569280,15.27581748,.00014948,43.0054,42.7700,268.1263,91.9418,0,U,59362,999,12569,.64360333E-4,.1509E-4,0
STARLINK-31553,2024-060R,2026-06-19T21:32:42.264096,15.27581564,.00014854,43.0053,35.7547,263.1170,96.9513,0,U,59363,999,12577,.312335E-5,-.176E-5,0
STARLINK-31547,2024-060S,2026-06-19T22:48:50.677056,15.27577119,.00013505,43.0045,30.9756,262.8815,97.1883,0,U,59364,999,12583,.47117556E-4,.1034E-4,0
STARLINK-31537,2024-060T,2026-06-19T01:35:02.080320,15.27573679,.00016941,43.0034,47.6252,262.9125,97.1534,0,U,59365,999,12556,-.36202646E-4,-.1258E-4,0
STARLINK-31451,2024-060U,2026-06-19T08:17:21.667488,15.27566499,.00011855,43.0016,45.4271,276.4172,83.6544,0,U,59366,999,12561,-.10567576E-4,-.553E-5,0
STARLINK-31428,2024-060V,2026-06-19T00:43:16.324320,15.27546691,.00015083,43.0019,47.3603,267.6536,92.4143,0,U,59367,999,12556,-.17226145E-3,-.4994E-4,0
STARLINK-31419,2024-060W,2026-06-19T16:34:02.504928,15.27571099,.00008051,43.0032,43.7118,309.0005,51.0775,0,U,59368,999,12566,.48161529E-4,.1063E-4,0
STARLINK-31583,2024-060X,2026-06-19T21:55:23.303424,15.27577755,.00012836,43.0021,31.5637,283.3393,76.7315,0,U,59369,999,12582,.11394946E-3,.2875E-4,0
STARLINK-31461,2024-060Y,2026-06-19T15:55:25.435776,15.27575293,.00012876,43.0043,33.1243,267.4408,92.6296,0,U,59370,999,12572,.45513194E-4,.99E-5,0
STARLINK-31641,2024-062A,2026-06-19T21:58:42.909024,15.34376235,.00013729,53.1600,142.1952,97.3789,262.7369,0,U,59374,999,12529,.66024629E-4,.1853E-4,0
STARLINK-31430,2024-062B,2026-06-19T15:07:17.854464,15.34393315,.00014951,53.1608,143.9614,111.2137,248.9025,0,U,59375,999,12525,.12193585E-4,.36E-6,0
STARLINK-31695,2024-062C,2026-06-19T21:15:37.447776,15.34398549,.00010888,53.1612,140.5824,92.0571,268.0556,0,U,59376,999,12528,.54715269E-4,.1473E-4,0
STARLINK-31716,2024-062D,2026-06-19T11:56:19.204800,15.30206446,.00010611,53.1603,94.1282,88.1146,271.9976,0,U,59377,999,12589,-.91956522E-4,-.3082E-4,0
STARLINK-31710,2024-062E,2026-06-19T05:16:27.824736,15.34394890,.00008982,53.1593,143.5336,80.7491,279.3613,0,U,59378,999,12518,-.22520407E-4,-.1137E-4,0
STARLINK-31698,2024-062F,2026-06-19T22:09:59.597280,15.34421877,.00009498,53.1621,140.1230,86.5251,273.5860,0,U,59379,999,12529,.23393217E-3,.7541E-4,0
STARLINK-31680,2024-062G,2026-06-19T04:56:02.938848,15.34370379,.00011415,53.1599,145.5803,86.6090,273.5043,0,U,59380,999,12515,.15106532E-3,.4726E-4,0
STARLINK-31713,2024-062H,2026-06-19T04:43:55.511328,15.34389538,.00011566,53.1593,145.5286,83.6274,276.4860,0,U,59381,999,12515,.3984681E-5,-.242E-5,0
STARLINK-31705,2024-062J,2026-06-19T22:37:17.117472,15.34397493,.00013603,53.1612,140.2238,84.0122,276.1036,0,U,59382,999,12529,.13735641E-4,.88E-6,0
STARLINK-31715,2024-062L,2026-06-19T22:00:01.999584,15.34384086,.00013542,53.1609,140.5745,95.7688,5.0275,0,U,59384,999,576,.80382013E-3,.26866E-3,0
STARLINK-31717,2024-062M,2026-06-19T05:13:24.985056,15.34392200,.00011779,53.1612,143.5233,100.0934,260.0202,0,U,59385,999,12521,.17153685E-4,.203E-5,0
STARLINK-31688,2024-062N,2026-06-19T04:53:01.033152,15.34389327,.00012693,53.1595,145.5685,86.0101,274.1047,0,U,59386,999,12515,.12605614E-4,.5E-6,0
STARLINK-31714,2024-062P,2026-06-19T05:04:19.543584,15.34392868,.00011834,53.1600,143.4802,78.2695,281.8440,0,U,59387,999,12517,-.2768452E-5,-.47E-5,0
STARLINK-31643,2024-062Q,2026-06-19T05:07:21.310176,15.34391174,.00011874,53.1603,143.4955,93.3767,266.7372,0,U,59388,999,12522,.18074862E-4,.234E-5,0
STARLINK-31647,2024-062R,2026-06-19T07:47:47.586912,15.34402024,.00011601,53.1606,143.5129,83.7629,276.3506,0,U,59389,999,12523,.59244302E-4,.1626E-4,0
STARLINK-31649,2024-062S,2026-06-19T22:40:18.972192,15.34393070,.00012648,53.1609,140.2380,91.0882,269.0266,0,U,59390,999,12533,.22564275E-4,.386E-5,0
STARLINK-31644,2024-062T,2026-06-19T22:53:14.939232,15.34405338,.00015413,53.1598,142.4274,100.7595,259.3582,0,U,59391,999,12530,-.97587446E-4,-.3673E-4,0
STARLINK-31626,2024-062U,2026-06-19T22:00:01.999584,15.33585099,.00017798,53.1606,140.6367,159.0925,267.9833,0,U,59392,999,582,.18888629E-1,.671076E-2,0
STARLINK-31443,2024-062V,2026-06-19T14:35:20.910624,15.34388810,.00013653,53.1601,128.0171,93.9352,266.1806,0,U,59393,999,12547,.22281342E-4,.376E-5,0
STARLINK-31607,2024-062W,2026-06-19T02:39:09.800640,15.34374204,.0001894,53.1600,144.2709,88.4988,271.6231,0,U,59394,999,12519,-.57365722E-4,-.2313E-4,0
STARLINK-31608,2024-062X,2026-06-19T04:49:18.139296,15.34391803,.00012951,53.1611,144.1234,89.3539,270.7612,0,U,59397,999,12516,.29189608E-4,.61E-5,0
STARLINK-31534,2024-064A,2026-06-19T09:19:43.664448,15.27578999,.00013886,43.0003,201.4609,275.9590,84.1103,0,U,59398,999,12472,.20574404E-4,.304E-5,0
STARLINK-31544,2024-064B,2026-06-19T08:59:35.279232,15.27576831,.00013602,43.0000,202.2156,270.6467,89.4228,0,U,59399,999,12477,.22067448E-4,.345E-5,0
STARLINK-31545,2024-064C,2026-06-19T03:19:50.293056,15.27497879,.00032375,43.0091,203.0268,275.0123,85.0359,0,U,59400,999,12474,.7440668E-3,.20219E-3,0
STARLINK-31507,2024-064D,2026-06-19T12:53:56.638176,15.27585531,.00007919,42.9990,200.8512,191.4834,168.6000,0,U,59401,999,12474,.59746704E-4,.1383E-4,0
STARLINK-31543,2024-064E,2026-06-19T13:30:58.840992,15.27559889,.00010594,42.9993,201.0470,264.7790,95.2941,0,U,59402,999,12480,.27734233E-4,.501E-5,0
STARLINK-31366,2024-064F,2026-06-19T08:28:07.650912,15.27578391,.00016261,43.0029,202.0525,275.5146,84.5520,0,U,59403,999,12477,.64530544E-4,.1514E-4,0
STARLINK-31374,2024-064G,2026-06-19T00:07:40.607040,15.27578394,.00013756,43.0034,152.9377,282.9397,77.1301,0,U,59404,999,12505,.32877158E-4,.643E-5,0
STARLINK-31400,2024-064H,2026-06-19T09:25:16.707936,15.27575400,.00012712,43.0012,201.4876,275.1403,84.9303,0,U,59405,999,12478,.32576753E-4,.634E-5,0
STARLINK-31391,2024-064J,2026-06-19T09:30:50.597280,15.27595441,.00012952,43.0026,201.5186,265.9506,94.1198,0,U,59406,999,12478,.35281121E-4,.709E-5,0
STARLINK-31387,2024-064K,2026-06-19T08:54:02.635776,15.27585262,.00012854,43.0016,202.1853,272.6875,87.3829,0,U,59407,999,12477,-.13897337E-3,-.4085E-4,0
STARLINK-31396,2024-064M,2026-06-19T08:13:34.190976,15.27581131,.00013926,43.0013,191.5808,272.2454,87.8238,0,U,59409,999,12483,.48172321E-4,.1064E-4,0
STARLINK-31412,2024-064N,2026-06-19T02:05:57.525504,15.27576406,.00015976,43.0048,203.5000,277.5952,82.4718,0,U,59410,999,12473,.11579E-5,-.23E-5,0
STARLINK-31483,2024-064P,2026-06-19T08:39:14.109408,15.27572306,.00013068,43.0021,202.1077,248.8710,111.2002,0,U,59411,999,12477,-.14901425E-4,-.672E-5,0
STARLINK-31568,2024-064Q,2026-06-19T13:25:23.939904,15.27578693,.00012806,43.0008,201.0169,274.1527,85.9178,0,U,59412,999,12480,.52865003E-4,.1193E-4,0
STARLINK-31615,2024-064R,2026-06-19T08:33:07.922880,15.27622331,.00007826,42.9992,195.1351,272.7047,87.3715,0,U,59413,999,12485,.10851427E-3,.2729E-4,0
STARLINK-31457,2024-064S,2026-06-19T08:36:55.103904,15.27576569,.00012319,42.9993,195.1441,275.2896,84.7815,0,U,59414,999,12485,.25507618E-4,.44E-5,0
STARLINK-31398,2024-064T,2026-06-19T12:59:29.271264,15.27586907,.00013322,43.0029,200.8830,275.0192,85.0508,0,U,59415,999,12480,.38693434E-4,.803E-5,0
STARLINK-31399,2024-064U,2026-06-19T03:25:17.818176,15.27633438,.00011243,43.0011,203.0452,279.4660,80.6064,0,U,59416,999,12474,-.44891009E-3,-.12614E-3,0
STARLINK-31401,2024-064V,2026-06-19T08:27:40.459104,15.27576589,.00015908,43.0022,195.1203,275.9010,84.1661,0,U,59417,999,12460,.3584594E-4,.724E-5,0
STARLINK-31414,2024-064W,2026-06-19T10:07:50.207232,15.27576344,.00014852,43.0020,201.7109,273.3831,86.6851,0,U,59418,999,12478,.62154952E-4,.1448E-4,0
STARLINK-31415,2024-064X,2026-06-19T02:54:05.229504,15.27574935,.00014765,43.0003,203.7487,273.4711,86.5972,0,U,59419,999,12473,.56984216E-4,.1306E-4,0
STARLINK-31466,2024-064Y,2026-06-19T09:05:08.544768,15.27576552,.0001089,43.0006,202.2426,270.4890,89.5837,0,U,59420,999,12477,.15098574E-4,.153E-5,0
